{
    "links": {
        "self": "http://www.neowsapp.com/rest/v1/neo/3836708?api_key=iIulBulltgU6a56xZRHN4H3l9WmuAYTsLGpBGhQ2"
    },
    "id": "3836708",
    "neo_reference_id": "3836708",
    "name": "(2018 XG)",
    "designation": "2018 XG",
    "nasa_jpl_url": "http://ssd.jpl.nasa.gov/sbdb.cgi?sstr=3836708",
    "absolute_magnitude_h": 26.8,
    "estimated_diameter": {
        "kilometers": {
            "estimated_diameter_min": 0.0116025908,
            "estimated_diameter_max": 0.0259441818
        },
        "meters": {
            "estimated_diameter_min": 11.6025908209,
            "estimated_diameter_max": 25.9441817907
        },
        "miles": {
            "estimated_diameter_min": 0.0072095135,
            "estimated_diameter_max": 0.0161209622
        },
        "feet": {
            "estimated_diameter_min": 38.066244069,
            "estimated_diameter_max": 85.1187093863
        }
    },
    "is_potentially_hazardous_asteroid": false,
    "close_approach_data": [
        {
            "close_approach_date": "2010-03-13",
            "close_approach_date_full": "2010-Mar-13 20:56",
            "epoch_date_close_approach": 1268513760000,
            "relative_velocity": {
                "kilometers_per_second": "13.9627471327",
                "kilometers_per_hour": "50265.8896778618",
                "miles_per_hour": "31233.2690612248"
            },
            "miss_distance": {
                "astronomical": "0.1882864026",
                "lunar": "73.2434106114",
                "kilometers": "28167244.778922462",
                "miles": "17502314.3125234956"
            },
            "orbiting_body": "Earth"
        },
        {
            "close_approach_date": "2018-12-07",
            "close_approach_date_full": "2018-Dec-07 06:51",
            "epoch_date_close_approach": 1544165460000,
            "relative_velocity": {
                "kilometers_per_second": "9.1620191458",
                "kilometers_per_hour": "32983.2689250109",
                "miles_per_hour": "20494.5206273214"
            },
            "miss_distance": {
                "astronomical": "0.009689347",
                "lunar": "3.769155983",
                "kilometers": "1449505.67289089",
                "miles": "900681.059998682"
            },
            "orbiting_body": "Earth"
        },
        {
            "close_approach_date": "2023-10-23",
            "close_approach_date_full": "2023-Oct-23 04:08",
            "epoch_date_close_approach": 1698034080000,
            "relative_velocity": {
                "kilometers_per_second": "12.7741341812",
                "kilometers_per_hour": "45986.8830524201",
                "miles_per_hour": "28574.4607499885"
            },
            "miss_distance": {
                "astronomical": "0.0665301504",
                "lunar": "25.8802285056",
                "kilometers": "9952768.790619648",
                "miles": "6184363.7537332224"
            },
            "orbiting_body": "Mars"
        },
        {
            "close_approach_date": "2079-03-28",
            "close_approach_date_full": "2079-Mar-28 05:56",
            "epoch_date_close_approach": 3447208560000,
            "relative_velocity": {
                "kilometers_per_second": "20.3791224955",
                "kilometers_per_hour": "73364.8409838076",
                "miles_per_hour": "45586.0591101886"
            },
            "miss_distance": {
                "astronomical": "0.3897086355",
                "lunar": "151.5966592095",
                "kilometers": "58299581.791406385",
                "miles": "36225680.318062713"
            },
            "orbiting_body": "Earth"
        }
    ],
    "orbital_data": {
        "orbit_id": "7",
        "orbit_determination_date": "2019-07-27 14:01:28",
        "first_observation_date": "2018-12-04",
        "last_observation_date": "2018-12-07",
        "data_arc_in_days": 3,
        "observations_used": 49,
        "orbit_uncertainty": "7",
        "minimum_orbit_intersection": ".00965602",
        "jupiter_tisserand_invariant": "4.063",
        "epoch_osculation": "2459000.5",
        "eccentricity": ".4630258040681487",
        "semi_major_axis": "1.70523238987479",
        "inclination": "4.607209047030256",
        "ascending_node_longitude": "68.56509802807325",
        "orbital_period": "813.3431000312938",
        "perihelion_distance": ".9156657914299645",
        "perihelion_argument": "46.33614391087518",
        "aphelion_distance": "2.494798988319616",
        "perihelion_time": "2459304.438272081131",
        "mean_anomaly": "225.4715605935586",
        "mean_motion": ".4426176357629994",
        "equinox": "J2000",
        "orbit_class": {
            "orbit_class_type": "APO",
            "orbit_class_description": "Near-Earth asteroid orbits which cross the Earth’s orbit similar to that of 1862 Apollo",
            "orbit_class_range": "a (semi-major axis) > 1.0 AU; q (perihelion) < 1.017 AU"
        }
    },
    "is_sentry_object": false
}